{
    "links": {
        "self": "http://www.neowsapp.com/rest/v1/neo/3689344?api_key=iIulBulltgU6a56xZRHN4H3l9WmuAYTsLGpBGhQ2"
    },
    "id": "3689344",
    "neo_reference_id": "3689344",
    "name": "(2014 SX141)",
    "designation": "2014 SX141",
    "nasa_jpl_url": "http://ssd.jpl.nasa.gov/sbdb.cgi?sstr=3689344",
    "absolute_magnitude_h": 22.6,
    "estimated_diameter": {
        "kilometers": {
            "estimated_diameter_min": 0.0802703167,
            "estimated_diameter_max": 0.1794898848
        },
        "meters": {
            "estimated_diameter_min": 80.2703167283,
            "estimated_diameter_max": 179.4898847799
        },
        "miles": {
            "estimated_diameter_min": 0.049877647,
            "estimated_diameter_max": 0.1115298092
        },
        "feet": {
            "estimated_diameter_min": 263.3540659348,
            "estimated_diameter_max": 588.8775935812
        }
    },
    "is_potentially_hazardous_asteroid": false,
    "close_approach_data": [
        {
            "close_approach_date": "2006-10-14",
            "close_approach_date_full": "2006-Oct-14 21:41",
            "epoch_date_close_approach": 1160862060000,
            "relative_velocity": {
                "kilometers_per_second": "11.2121265947",
                "kilometers_per_hour": "40363.6557407839",
                "miles_per_hour": "25080.4059795999"
            },
            "miss_distance": {
                "astronomical": "0.4986776273",
                "lunar": "193.9855970197",
                "kilometers": "74601110.860733851",
                "miles": "46354980.7798391038"
            },
            "orbiting_body": "Earth"
        },
        {
            "close_approach_date": "2010-10-19",
            "close_approach_date_full": "2010-Oct-19 06:38",
            "epoch_date_close_approach": 1287470280000,
            "relative_velocity": {
                "kilometers_per_second": "6.6718249049",
                "kilometers_per_hour": "24018.5696575114",
                "miles_per_hour": "14924.2051296909"
            },
            "miss_distance": {
                "astronomical": "0.2925415526",
                "lunar": "113.7986639614",
                "kilometers": "43763593.155452962",
                "miles": "27193435.8104243956"
            },
            "orbiting_body": "Earth"
        },
        {
            "close_approach_date": "2014-10-24",
            "close_approach_date_full": "2014-Oct-24 18:28",
            "epoch_date_close_approach": 1414175280000,
            "relative_velocity": {
                "kilometers_per_second": "4.1109849152",
                "kilometers_per_hour": "14799.5456945625",
                "miles_per_hour": "9195.862156713"
            },
            "miss_distance": {
                "astronomical": "0.1885576178",
                "lunar": "73.3489133242",
                "kilometers": "28207817.995154086",
                "miles": "17527525.3400389468"
            },
            "orbiting_body": "Earth"
        },
        {
            "close_approach_date": "2018-11-01",
            "close_approach_date_full": "2018-Nov-01 02:24",
            "epoch_date_close_approach": 1541039040000,
            "relative_velocity": {
                "kilometers_per_second": "8.0661006302",
                "kilometers_per_hour": "29037.9622687916",
                "miles_per_hour": "18043.0604997388"
            },
            "miss_distance": {
                "astronomical": "0.3338038742",
                "lunar": "129.8497070638",
                "kilometers": "49936348.578067954",
                "miles": "31029008.1721836052"
            },
            "orbiting_body": "Earth"
        },
        {
            "close_approach_date": "2022-11-07",
            "close_approach_date_full": "2022-Nov-07 01:59",
            "epoch_date_close_approach": 1667786340000,
            "relative_velocity": {
                "kilometers_per_second": "11.9888044496",
                "kilometers_per_hour": "43159.6960187144",
                "miles_per_hour": "26817.7566734062"
            },
            "miss_distance": {
                "astronomical": "0.4820472215",
                "lunar": "187.5163691635",
                "kilometers": "72113237.575818205",
                "miles": "44809088.004593029"
            },
            "orbiting_body": "Earth"
        }
    ],
    "orbital_data": {
        "orbit_id": "25",
        "orbit_determination_date": "2017-04-06 08:38:37",
        "first_observation_date": "2014-09-18",
        "last_observation_date": "2014-11-21",
        "data_arc_in_days": 64,
        "observations_used": 91,
        "orbit_uncertainty": "6",
        "minimum_orbit_intersection": ".172618",
        "jupiter_tisserand_invariant": "3.231",
        "epoch_osculation": "2459000.5",
        "eccentricity": ".5391068490228874",
        "semi_major_axis": "2.530636807962302",
        "inclination": ".7205364766415504",
        "ascending_node_longitude": "197.3666291503501",
        "orbital_period": "1470.425947155037",
        "perihelion_distance": "1.166353172400407",
        "perihelion_argument": "195.5300814949731",
        "aphelion_distance": "3.894920443524196",
        "perihelion_time": "2458433.460547071959",
        "mean_anomaly": "138.8265784135892",
        "mean_motion": ".2448270181143933",
        "equinox": "J2000",
        "orbit_class": {
            "orbit_class_type": "AMO",
            "orbit_class_description": "Near-Earth asteroid orbits similar to that of 1221 Amor",
            "orbit_class_range": "1.017 AU < q (perihelion) < 1.3 AU"
        }
    },
    "is_sentry_object": false
}